[{"OBJECT_NAME":"FLOCK 4G-5","OBJECT_ID":"2025-009BG","EPOCH":"2026-03-09T10:57:11.608704","MEAN_MOTION":15.28679529,"ECCENTRICITY":0.00020946,"INCLINATION":97.4058,"RA_OF_ASC_NODE":151.2478,"ARG_OF_PERICENTER":314.5072,"MEAN_ANOMALY":45.5996,"EPHEMERIS_TYPE":0,"CLASSIFICATION_TYPE":"U","NORAD_CAT_ID":62663,"ELEMENT_SET_NO":999,"REV_AT_EPOCH":6369,"BSTAR":0.00040688068,"MEAN_MOTION_DOT":0.00011278,"MEAN_MOTION_DDOT":0},{"OBJECT_NAME":"STARLINK-35875","OBJECT_ID":"2025-299K","EPOCH":"2026-03-09T22:00:01.999584","MEAN_MOTION":15.2843404,"ECCENTRICITY":0.00017779,"INCLINATION":43.0001,"RA_OF_ASC_NODE":167.5617,"ARG_OF_PERICENTER":289.1685,"MEAN_ANOMALY":36.838,"EPHEMERIS_TYPE":0,"CLASSIFICATION_TYPE":"U","NORAD_CAT_ID":67111,"ELEMENT_SET_NO":999,"REV_AT_EPOCH":590,"BSTAR":-0.00049262906,"MEAN_MOTION_DOT":-0.00014153,"MEAN_MOTION_DDOT":0}]
